[{"OBJECT_NAME":"STARLINK-6304","OBJECT_ID":"2023-078M","EPOCH":"2026-03-09T22:00:01.787040","MEAN_MOTION":14.98320396,"ECCENTRICITY":0.00029147,"INCLINATION":70.0005,"RA_OF_ASC_NODE":324.0422,"ARG_OF_PERICENTER":262.0648,"MEAN_ANOMALY":98.018,"EPHEMERIS_TYPE":0,"CLASSIFICATION_TYPE":"U","NORAD_CAT_ID":56778,"ELEMENT_SET_NO":999,"REV_AT_EPOCH":15320,"BSTAR":0.00013443317,"MEAN_MOTION_DOT":1.511e-5,"MEAN_MOTION_DDOT":0},{"OBJECT_NAME":"SATGUS","OBJECT_ID":"2025-009DJ","EPOCH":"2026-03-09T16:57:39.644640","MEAN_MOTION":14.99840473,"ECCENTRICITY":0.00056702,"INCLINATION":97.7097,"RA_OF_ASC_NODE":150.9679,"ARG_OF_PERICENTER":96.3538,"MEAN_ANOMALY":263.8332,"EPHEMERIS_TYPE":0,"CLASSIFICATION_TYPE":"U","NORAD_CAT_ID":62713,"ELEMENT_SET_NO":999,"REV_AT_EPOCH":6264,"BSTAR":0.00076063433,"MEAN_MOTION_DOT":9.37e-5,"MEAN_MOTION_DDOT":0}]
